[{"OBJECT_NAME":"STARLINK-32893","OBJECT_ID":"2025-024U","EPOCH":"2026-03-09T03:00:34.204896","MEAN_MOTION":15.27622987,"ECCENTRICITY":0.00032194,"INCLINATION":43,"RA_OF_ASC_NODE":328.2049,"ARG_OF_PERICENTER":247.3227,"MEAN_ANOMALY":112.7284,"EPHEMERIS_TYPE":0,"CLASSIFICATION_TYPE":"U","NORAD_CAT_ID":62897,"ELEMENT_SET_NO":999,"REV_AT_EPOCH":6218,"BSTAR":0.0015195816,"MEAN_MOTION_DOT":0.0004185,"MEAN_MOTION_DDOT":0},{"OBJECT_NAME":"GEOSCAN 5 (RS92S5)","OBJECT_ID":"2025-155R","EPOCH":"2026-03-09T22:01:07.273920","MEAN_MOTION":15.30265233,"ECCENTRICITY":0.00070849,"INCLINATION":97.4462,"RA_OF_ASC_NODE":37.7456,"ARG_OF_PERICENTER":154.5846,"MEAN_ANOMALY":205.5745,"EPHEMERIS_TYPE":0,"CLASSIFICATION_TYPE":"U","NORAD_CAT_ID":64891,"ELEMENT_SET_NO":999,"REV_AT_EPOCH":6562,"BSTAR":0.00068639307,"MEAN_MOTION_DOT":0.00020065,"MEAN_MOTION_DDOT":0}]
